start=new Date('2022-02-09T00:00:00.000Z').valueOf();
sats=[{"PERIOD":"91.533","BSTAR":"0.00027319000000","MEAN_MOTION_DDOT":"0.0000000000000","REV_AT_EPOCH":"370","COUNTRY_CODE":"US","MEAN_MOTION":"15.73196892","GP_ID":"195550348","OBJECT_ID":"2021-125AL","PERIAPSIS":"347.603","RA_OF_ASC_NODE":"107.9392","REF_FRAME":"TEME","TIME_SYSTEM":"UTC","DECAY_DATE":null,"MEAN_ELEMENT_THEORY":"SGP4","OBJECT_NAME":"STARLINK-3268","EPOCH":"2022-02-08T14:00:01.000224","SITE":"AFWTR","TLE_LINE1":"1 50190U 21125AL  22039.58334491  .00037894  00000-0  27319-3 0  9995","LAUNCH_DATE":"2021-12-18","EPHEMERIS_TYPE":"0","NORAD_CAT_ID":"50190","ARG_OF_PERICENTER":"16.1932","FILE":"3295096","INCLINATION":"53.2177","MEAN_ANOMALY":"335.1919","OBJECT_TYPE":"PAYLOAD","ECCENTRICITY":"0.00032200","CENTER_NAME":"EARTH","ELEMENT_SET_NO":"999","RCS_SIZE":"LARGE","APOAPSIS":"351.935","SEMIMAJOR_AXIS":"6727.904","MEAN_MOTION_DOT":"0.00037894","CLASSIFICATION_TYPE":"U","TLE_LINE2":"2 50190  53.2177 107.9392 0003220  16.1932 335.1919 15.73196892  3704"},{"LAUNCH_DATE":"2021-12-18","TLE_LINE1":"1 50191U 21125AM  22039.58334491 -.00660722  00000-0 -18022-1 0  9999","EPHEMERIS_TYPE":"0","NORAD_CAT_ID":"50191","EPOCH":"2022-02-08T14:00:01.000224","SITE":"AFWTR","INCLINATION":"53.2175","MEAN_ANOMALY":"259.0518","ARG_OF_PERICENTER":"35.5161","FILE":"3295096","TIME_SYSTEM":"UTC","RA_OF_ASC_NODE":"110.8442","REF_FRAME":"TEME","OBJECT_NAME":"STARLINK-3273","MEAN_ELEMENT_THEORY":"SGP4","DECAY_DATE":null,"SEMIMAJOR_AXIS":"6826.705","CLASSIFICATION_TYPE":"U","MEAN_MOTION_DOT":"-0.00660722","RCS_SIZE":"LARGE","APOAPSIS":"449.849","TLE_LINE2":"2 50191  53.2175 110.8442 0001873  35.5161 259.0518 15.39168055  3670","ECCENTRICITY":"0.00018730","OBJECT_TYPE":"PAYLOAD","CENTER_NAME":"EARTH","ELEMENT_SET_NO":"999","COUNTRY_CODE":"US","MEAN_MOTION":"15.39168055","GP_ID":"195549111","PERIOD":"93.557","MEAN_MOTION_DDOT":"0.0000000000000","REV_AT_EPOCH":"367","BSTAR":"-0.01802200000000","PERIAPSIS":"447.292","OBJECT_ID":"2021-125AM"},{"ECCENTRICITY":"0.00030030","OBJECT_TYPE":"PAYLOAD","CENTER_NAME":"EARTH","ELEMENT_SET_NO":"999","SEMIMAJOR_AXIS":"6727.917","MEAN_MOTION_DOT":"0.00026396","CLASSIFICATION_TYPE":"U","RCS_SIZE":"LARGE","APOAPSIS":"351.802","TLE_LINE2":"2 50192  53.2174 106.2852 0003003  12.5450  68.7856 15.73192487  8463","TIME_SYSTEM":"UTC","RA_OF_ASC_NODE":"106.2852","REF_FRAME":"TEME","OBJECT_NAME":"STARLINK-3259","MEAN_ELEMENT_THEORY":"SGP4","DECAY_DATE":null,"LAUNCH_DATE":"2021-12-18","TLE_LINE1":"1 50192U 21125AN  22039.91668981  .00026396  00000-0  19194-3 0  9995","EPHEMERIS_TYPE":"0","NORAD_CAT_ID":"50192","EPOCH":"2022-02-08T22:00:01.999584","SITE":"AFWTR","INCLINATION":"53.2174","MEAN_ANOMALY":"68.7856","ARG_OF_PERICENTER":"12.5450","FILE":"3295363","PERIAPSIS":"347.761","OBJECT_ID":"2021-125AN","PERIOD":"91.534","MEAN_MOTION_DDOT":"0.0000000000000","REV_AT_EPOCH":"846","BSTAR":"0.00019194000000","COUNTRY_CODE":"US","MEAN_MOTION":"15.73192487","GP_ID":"195580718"},{"MEAN_MOTION":"15.73220328","COUNTRY_CODE":"US","GP_ID":"195581382","PERIOD":"91.532","BSTAR":"0.00021447000000","MEAN_MOTION_DDOT":"0.0000000000000","REV_AT_EPOCH":"1107","OBJECT_ID":"2021-125AP","PERIAPSIS":"347.855","SITE":"AFWTR","EPOCH":"2022-02-08T22:00:01.999584","NORAD_CAT_ID":"50193","EPHEMERIS_TYPE":"0","LAUNCH_DATE":"2021-12-18","TLE_LINE1":"1 50193U 21125AP  22039.91668981  .00029614  00000-0  21447-3 0  9996","FILE":"3295408","ARG_OF_PERICENTER":"15.8970","MEAN_ANOMALY":"62.5709","INCLINATION":"53.2173","REF_FRAME":"TEME","RA_OF_ASC_NODE":"106.2906","TIME_SYSTEM":"UTC","DECAY_DATE":null,"MEAN_ELEMENT_THEORY":"SGP4","OBJECT_NAME":"STARLINK-3261","APOAPSIS":"351.549","RCS_SIZE":"LARGE","MEAN_MOTION_DOT":"0.00029614","CLASSIFICATION_TYPE":"U","SEMIMAJOR_AXIS":"6727.837","TLE_LINE2":"2 50193  53.2173 106.2906 0002745  15.8970  62.5709 15.73220328 11074","OBJECT_TYPE":"PAYLOAD","ECCENTRICITY":"0.00027450","ELEMENT_SET_NO":"999","CENTER_NAME":"EARTH"},{"OBJECT_ID":"2021-125AQ","PERIAPSIS":"347.820","BSTAR":"-0.00032825000000","REV_AT_EPOCH":"1107","MEAN_MOTION_DDOT":"0.0000000000000","PERIOD":"91.530","GP_ID":"195580637","COUNTRY_CODE":"US","MEAN_MOTION":"15.73246834","CENTER_NAME":"EARTH","ELEMENT_SET_NO":"999","ECCENTRICITY":"0.00026860","OBJECT_TYPE":"PAYLOAD","TLE_LINE2":"2 50194  53.2169 106.2811 0002686  13.5692  68.6473 15.73246834 11070","APOAPSIS":"351.434","RCS_SIZE":"LARGE","SEMIMAJOR_AXIS":"6727.762","CLASSIFICATION_TYPE":"U","MEAN_MOTION_DOT":"-0.00046537","DECAY_DATE":null,"OBJECT_NAME":"STARLINK-3269","MEAN_ELEMENT_THEORY":"SGP4","RA_OF_ASC_NODE":"106.2811","REF_FRAME":"TEME","TIME_SYSTEM":"UTC","ARG_OF_PERICENTER":"13.5692","FILE":"3295363","INCLINATION":"53.2169","MEAN_ANOMALY":"68.6473","SITE":"AFWTR","EPOCH":"2022-02-08T22:00:01.999584","TLE_LINE1":"1 50194U 21125AQ  22039.91668981 -.00046537  00000-0 -32825-3 0  9994","LAUNCH_DATE":"2021-12-18","NORAD_CAT_ID":"50194","EPHEMERIS_TYPE":"0"},{"TLE_LINE2":"2 50195  53.2165 106.2937 0002749  22.7342  56.6977 15.73210631 11072","APOAPSIS":"351.579","RCS_SIZE":"LARGE","SEMIMAJOR_AXIS":"6727.865","CLASSIFICATION_TYPE":"U","MEAN_MOTION_DOT":"0.00026726","CENTER_NAME":"EARTH","ELEMENT_SET_NO":"999","OBJECT_TYPE":"PAYLOAD","ECCENTRICITY":"0.00027490","ARG_OF_PERICENTER":"22.7342","FILE":"3295363","INCLINATION":"53.2165","MEAN_ANOMALY":"56.6977","SITE":"AFWTR","EPOCH":"2022-02-08T22:00:01.999584","TLE_LINE1":"1 50195U 21125AR  22039.91668981  .00026726  00000-0  19413-3 0  9999","LAUNCH_DATE":"2021-12-18","EPHEMERIS_TYPE":"0","NORAD_CAT_ID":"50195","DECAY_DATE":null,"OBJECT_NAME":"STARLINK-3266","MEAN_ELEMENT_THEORY":"SGP4","RA_OF_ASC_NODE":"106.2937","REF_FRAME":"TEME","TIME_SYSTEM":"UTC","OBJECT_ID":"2021-125AR","PERIAPSIS":"347.880","GP_ID":"195580128","COUNTRY_CODE":"US","MEAN_MOTION":"15.73210631","BSTAR":"0.00019413000000","MEAN_MOTION_DDOT":"0.0000000000000","REV_AT_EPOCH":"1107","PERIOD":"91.533"},{"PERIOD":"91.532","MEAN_MOTION_DDOT":"0.0000000000000","REV_AT_EPOCH":"1107","BSTAR":"0.00020855000000","COUNTRY_CODE":"US","MEAN_MOTION":"15.73228008","GP_ID":"195580723","PERIAPSIS":"347.621","OBJECT_ID":"2021-125AS","TIME_SYSTEM":"UTC","RA_OF_ASC_NODE":"106.2791","REF_FRAME":"TEME","MEAN_ELEMENT_THEORY":"SGP4","OBJECT_NAME":"STARLINK-3263","DECAY_DATE":null,"TLE_LINE1":"1 50196U 21125AS  22039.91668981  .00028787  00000-0  20855-3 0  9991","LAUNCH_DATE":"2021-12-18","NORAD_CAT_ID":"50196","EPHEMERIS_TYPE":"0","SITE":"AFWTR","EPOCH":"2022-02-08T22:00:01.999584","INCLINATION":"53.2174","MEAN_ANOMALY":"68.0731","ARG_OF_PERICENTER":"15.9934","FILE":"3295363","ECCENTRICITY":"0.00030610","OBJECT_TYPE":"PAYLOAD","CENTER_NAME":"EARTH","ELEMENT_SET_NO":"999","SEMIMAJOR_AXIS":"6727.815","CLASSIFICATION_TYPE":"U","MEAN_MOTION_DOT":"0.00028787","APOAPSIS":"351.740","RCS_SIZE":"LARGE","TLE_LINE2":"2 50196  53.2174 106.2791 0003061  15.9934  68.0731 15.73228008 11072"},{"PERIAPSIS":"347.870","OBJECT_ID":"2021-125AT","PERIOD":"91.533","REV_AT_EPOCH":"1107","MEAN_MOTION_DDOT":"0.0000000000000","BSTAR":"0.00023017000000","COUNTRY_CODE":"US","MEAN_MOTION":"15.73201174","GP_ID":"195580727","OBJECT_TYPE":"PAYLOAD","ECCENTRICITY":"0.00028050","CENTER_NAME":"EARTH","ELEMENT_SET_NO":"999","SEMIMAJOR_AXIS":"6727.892","CLASSIFICATION_TYPE":"U","MEAN_MOTION_DOT":"0.00031810","APOAPSIS":"351.644","RCS_SIZE":"MEDIUM","TLE_LINE2":"2 50197  53.2160 106.2849 0002805  19.1122  64.0824 15.73201174 11076","TIME_SYSTEM":"UTC","RA_OF_ASC_NODE":"106.2849","REF_FRAME":"TEME","OBJECT_NAME":"STARLINK-3267","MEAN_ELEMENT_THEORY":"SGP4","DECAY_DATE":null,"LAUNCH_DATE":"2021-12-18","TLE_LINE1":"1 50197U 21125AT  22039.91668981  .00031810  00000-0  23017-3 0  9996","EPHEMERIS_TYPE":"0","NORAD_CAT_ID":"50197","SITE":"AFWTR","EPOCH":"2022-02-08T22:00:01.999584","INCLINATION":"53.2160","MEAN_ANOMALY":"64.0824","ARG_OF_PERICENTER":"19.1122","FILE":"3295363"},{"PERIOD":"91.532","MEAN_MOTION_DDOT":"0.0000000000000","REV_AT_EPOCH":"370","BSTAR":"0.00002598400000","COUNTRY_CODE":"US","MEAN_MOTION":"15.73223336","GP_ID":"195550349","PERIAPSIS":"347.781","OBJECT_ID":"2021-125AU","TIME_SYSTEM":"UTC","RA_OF_ASC_NODE":"107.9242","REF_FRAME":"TEME","MEAN_ELEMENT_THEORY":"SGP4","OBJECT_NAME":"STARLINK-3264","DECAY_DATE":null,"TLE_LINE1":"1 50198U 21125AU  22039.58334491  .00003029  00000-0  25984-4 0  9993","LAUNCH_DATE":"2021-12-18","NORAD_CAT_ID":"50198","EPHEMERIS_TYPE":"0","EPOCH":"2022-02-08T14:00:01.000224","SITE":"AFWTR","INCLINATION":"53.2175","MEAN_ANOMALY":"340.6405","ARG_OF_PERICENTER":"17.2734","FILE":"3295096","OBJECT_TYPE":"PAYLOAD","ECCENTRICITY":"0.00028430","CENTER_NAME":"EARTH","ELEMENT_SET_NO":"999","SEMIMAJOR_AXIS":"6727.829","MEAN_MOTION_DOT":"0.00003029","CLASSIFICATION_TYPE":"U","RCS_SIZE":"LARGE","APOAPSIS":"351.606","TLE_LINE2":"2 50198  53.2175 107.9242 0002843  17.2734 340.6405 15.73223336  3701"},{"COUNTRY_CODE":"US","MEAN_MOTION":"15.73274369","GP_ID":"195580642","PERIOD":"91.529","BSTAR":"-0.00030743000000","REV_AT_EPOCH":"1107","MEAN_MOTION_DDOT":"0.0000000000000","OBJECT_ID":"2021-125AV","PERIAPSIS":"347.255","SITE":"AFWTR","EPOCH":"2022-02-08T22:00:01.999584","LAUNCH_DATE":"2021-12-18","TLE_LINE1":"1 50199U 21125AV  22039.91668981 -.00043698  00000-0 -30743-3 0  9991","NORAD_CAT_ID":"50199","EPHEMERIS_TYPE":"0","ARG_OF_PERICENTER":"20.9341","FILE":"3295363","INCLINATION":"53.2163","MEAN_ANOMALY":"75.2828","RA_OF_ASC_NODE":"106.2514","REF_FRAME":"TEME","TIME_SYSTEM":"UTC","DECAY_DATE":null,"OBJECT_NAME":"STARLINK-3270","MEAN_ELEMENT_THEORY":"SGP4","APOAPSIS":"351.841","RCS_SIZE":"LARGE","SEMIMAJOR_AXIS":"6727.683","CLASSIFICATION_TYPE":"U","MEAN_MOTION_DOT":"-0.00043698","TLE_LINE2":"2 50199  53.2163 106.2514 0003408  20.9341  75.2828 15.73274369 11077","ECCENTRICITY":"0.00034080","OBJECT_TYPE":"PAYLOAD","CENTER_NAME":"EARTH","ELEMENT_SET_NO":"999"}];
